{"spkid": "50774122", "covariance": {"data": [["6.416166430761172E-15", "-7.522859809159904E-15", "-1.336515964575555E-12", "-3.303054258622043E-14", "-5.596925997631562E-13", "8.087478164495572E-14"], ["-7.522859809159904E-15", "8.8434026220601E-15", "1.409150085661592E-12", "2.578439653025113E-14", "5.94579916120087E-13", "-9.657975687147477E-14"], ["-1.336515964575555E-12", "1.409150085661592E-12", "1.560893319221644E-9", "1.219836590935684E-10", "6.451560071265235E-10", "3.828242259348014E-12"], ["-3.303054258622043E-14", "2.578439653025113E-14", "1.219836590935684E-10", "4.876060348904921E-10", "-4.144447575089198E-10", "-4.142999188385166E-11"], ["-5.596925997631562E-13", "5.94579916120087E-13", "6.451560071265235E-10", "-4.144447575089198E-10", "7.524120555541367E-10", "3.96904004113249E-11"], ["8.087478164495572E-14", "-9.657975687147477E-14", "3.828242259348014E-12", "-4.142999188385166E-11", "3.96904004113249E-11", "9.297442401831288E-11"]], "elements": [{"label": "e", "units": null, "title": "eccentricity", "value": ".3621316038268773", "name": "e", "sigma": 8.01009764657159e-08}, {"sigma": 9.4039367405678e-08, "name": "q", "units": "au", "title": "perihelion distance", "value": ".7794502799676363", "label": "q"}, {"label": "tp", "units": "TDB", "value": "2458476.171374612658", "title": "time of perihelion passage", "name": "tp", "sigma": 3.95081424420542e-05}, {"label": "node", "sigma": 2.20818032526896e-05, "name": "om", "units": "deg", "title": "longitude of the ascending node", "value": "67.32821705656393"}, {"value": "266.659797745931", "title": "argument of perihelion", "units": "deg", "sigma": 2.74301304326855e-05, "name": "w", "label": "peri"}, {"label": "i", "units": "deg", "title": "inclination", "value": "12.32321400927235", "sigma": 9.64232461693304e-06, "name": "i"}], "labels": ["e", "q", "tp", "node", "peri", "i"], "epoch": "2458567.5"}, "elements": [{"units": null, "title": "eccentricity", "value": ".3624135371969499", "name": "e", "sigma": "8.0158E-8", "label": "e"}, {"units": "au", "title": "semi-major axis", "value": "1.222569430494657", "name": "a", "sigma": "9.2125E-9", "label": "a"}, {"label": "q", "units": "au", "value": ".779493718720228", "title": "perihelion distance", "sigma": "9.4025E-8", "name": "q"}, {"units": "deg", "title": "inclination; angle with respect to x-y ecliptic plane", "value": "12.32343609468989", "name": "i", "sigma": "9.6409E-6", "label": "i"}, {"value": "67.26329325736945", "title": "longitude of the ascending node", "units": "deg", "name": "om", "sigma": "2.2077E-5", "label": "node"}, {"label": "peri", "sigma": "2.7415E-5", "name": "w", "units": "deg", "title": "argument of perihelion", "value": "266.7589187017248"}, {"label": "M", "title": "mean anomaly", "value": "187.5386984741909", "units": "deg", "sigma": "1.2687E-5", "name": "ma"}, {"title": "time of perihelion passage", "value": "2461437.036346198410", "units": "TDB", "sigma": "1.7167E-5", "name": "tp", "label": "tp"}, {"label": "period", "name": "per", "sigma": "5.5809E-6", "title": "sidereal orbital period", "value": "493.7518381112546", "units": "d"}, {"name": "n", "sigma": "8.2412E-9", "value": ".7291112097467939", "title": "mean motion", "units": "deg/d", "label": "n"}, {"value": "1.665645142269087", "title": "aphelion distance", "units": "au", "sigma": "1.2551E-8", "name": "ad", "label": "Q"}], "epoch": "2461200.5"}